{"type": "FeatureCollection", "features": [ {"type": "Feature", "properties": {"norad_id": 66591, "name": "STARLINK-36058", "group": "last-30-days", "lat": -0.4107093151545124, "lon": -106.33303472733546, "alt_km": 328.11748850629647, "timestamp": "2025-12-02T10:50:46.053635+00:00", "meta": {"OBJECT_NAME": "STARLINK-36058", "OBJECT_ID": "2025-270D", "EPOCH": "2025-12-01T16:00:03.998880", "MEAN_MOTION": 15.83317533, "ECCENTRICITY": 0.0001642, "INCLINATION": 42.9983, "RA_OF_ASC_NODE": 258.922, "ARG_OF_PERICENTER": 260.7738, "MEAN_ANOMALY": 301.1633, "EPHEMERIS_TYPE": 0, "CLASSIFICATION_TYPE": "U", "NORAD_CAT_ID": 66591, "ELEMENT_SET_NO": 999, "REV_AT_EPOCH": 262, "BSTAR": -0.0076142, "MEAN_MOTION_DOT": -0.01504836, "MEAN_MOTION_DDOT": 0}, "tle": {"line1": "1 66591U 25270D   25335.66671295 -.01504836  00000+0 -76142-2 0  9993", "line2": "2 66591  42.9983 258.9220 0001642 260.7738 301.1633 15.83317533  2624"}}, "geometry": {"type": "Point", "coordinates": [-106.33303472733546, -0.4107093151545124]}}, {"type": "Feature", "properties": {"norad_id": 66592, "name": "STARLINK-36066", "group": "last-30-days", "lat": 0.9316244034880053, "lon": -104.89718410929503, "alt_km": 328.1260527472914, "timestamp": "2025-12-02T10:50:46.053645+00:00", "meta": {"OBJECT_NAME": "STARLINK-36066", "OBJECT_ID": "2025-270E", "EPOCH": "2025-12-01T16:00:03.998880", "MEAN_MOTION": 15.83342928, "ECCENTRICITY": 0.0001654, "INCLINATION": 42.9983, "RA_OF_ASC_NODE": 258.9172, "ARG_OF_PERICENTER": 255.744, "MEAN_ANOMALY": 308.1125, "EPHEMERIS_TYPE": 0, "CLASSIFICATION_TYPE": "U", "NORAD_CAT_ID": 66592, "ELEMENT_SET_NO": 999, "REV_AT_EPOCH": 252, "BSTAR": -0.0076532, "MEAN_MOTION_DOT": -0.01513256, "MEAN_MOTION_DDOT": 0}, "tle": {"line1": "1 66592U 25270E   25335.66671295 -.01513256  00000+0 -76532-2 0  9993", "line2": "2 66592  42.9983 258.9172 0001654 255.7440 308.1125 15.83342928  2526"}}, "geometry": {"type": "Point", "coordinates": [-104.89718410929503, 0.9316244034880053]}}, {"type": "Feature", "properties": {"norad_id": 66593, "name": "STARLINK-36031", "group": "last-30-days", "lat": 2.3930865985752394, "lon": -103.33169330075455, "alt_km": 327.87861627239, "timestamp": "2025-12-02T10:50:46.053655+00:00", "meta": {"OBJECT_NAME": "STARLINK-36031", "OBJECT_ID": "2025-270F", "EPOCH": "2025-12-01T16:00:03.998880", "MEAN_MOTION": 15.83355894, "ECCENTRICITY": 0.0001703, "INCLINATION": 42.9982, "RA_OF_ASC_NODE": 258.912, "ARG_OF_PERICENTER": 260.068, "MEAN_ANOMALY": 305.9294, "EPHEMERIS_TYPE": 0, "CLASSIFICATION_TYPE": "U", "NORAD_CAT_ID": 66593, "ELEMENT_SET_NO": 999, "REV_AT_EPOCH": 262, "BSTAR": -0.0077225, "MEAN_MOTION_DOT": -0.01526179, "MEAN_MOTION_DDOT": 0}, "tle": {"line1": "1 66593U 25270F   25335.66671295 -.01526179  00000+0 -77225-2 0  9992", "line2": "2 66593  42.9982 258.9120 0001703 260.0680 305.9294 15.83355894  2628"}}, "geometry": {"type": "Point", "coordinates": [-103.33169330075455, 2.3930865985752394]}}, {"type": "Feature", "properties": {"norad_id": 66594, "name": "STARLINK-36032", "group": "last-30-days", "lat": 3.9050477818814784, "lon": -101.70676658998254, "alt_km": 327.8599687798451, "timestamp": "2025-12-02T10:50:46.053665+00:00", "meta": {"OBJECT_NAME": "STARLINK-36032", "OBJECT_ID": "2025-270G", "EPOCH": "2025-12-01T16:00:03.998880", "MEAN_MOTION": 15.83355975, "ECCENTRICITY": 0.0001626, "INCLINATION": 42.9983, "RA_OF_ASC_NODE": 258.9063, "ARG_OF_PERICENTER": 256.8186, "MEAN_ANOMALY": 311.4207, "EPHEMERIS_TYPE": 0, "CLASSIFICATION_TYPE": "U", "NORAD_CAT_ID": 66594, "ELEMENT_SET_NO": 999, "REV_AT_EPOCH": 236, "BSTAR": -0.0077645, "MEAN_MOTION_DOT": -0.01533415, "MEAN_MOTION_DDOT": 0}, "tle": {"line1": "1 66594U 25270G   25335.66671295 -.01533415  00000+0 -77645-2 0  9990", "line2": "2 66594  42.9983 258.9063 0001626 256.8186 311.4207 15.83355975  2361"}}, "geometry": {"type": "Point", "coordinates": [-101.70676658998254, 3.9050477818814784]}}, {"type": "Feature", "properties": {"norad_id": 66595, "name": "STARLINK-35711", "group": "last-30-days", "lat": 5.39018965617526, "lon": -100.10183865456175, "alt_km": 327.7797206971145, "timestamp": "2025-12-02T10:50:46.053693+00:00", "meta": {"OBJECT_NAME": "STARLINK-35711", "OBJECT_ID": "2025-270H", "EPOCH": "2025-12-01T16:00:03.998880", "MEAN_MOTION": 15.83363114, "ECCENTRICITY": 0.0001687, "INCLINATION": 42.9983, "RA_OF_ASC_NODE": 258.9005, "ARG_OF_PERICENTER": 255.8443, "MEAN_ANOMALY": 314.5867, "EPHEMERIS_TYPE": 0, "CLASSIFICATION_TYPE": "U", "NORAD_CAT_ID": 66595, "ELEMENT_SET_NO": 999, "REV_AT_EPOCH": 273, "BSTAR": -0.0078182, "MEAN_MOTION_DOT": -0.01543242, "MEAN_MOTION_DDOT": 0}, "tle": {"line1": "1 66595U 25270H   25335.66671295 -.01543242  00000+0 -78182-2 0  9997", "line2": "2 66595  42.9983 258.9005 0001687 255.8443 314.5867 15.83363114  2731"}}, "geometry": {"type": "Point", "coordinates": [-100.10183865456175, 5.39018965617526]}}, {"type": "Feature", "properties": {"norad_id": 66596, "name": "STARLINK-35811", "group": "last-30-days", "lat": 6.819593321458251, "lon": -98.54504397961503, "alt_km": 327.7275571503469, "timestamp": "2025-12-02T10:50:46.053704+00:00", "meta": {"OBJECT_NAME": "STARLINK-35811", "OBJECT_ID": "2025-270J", "EPOCH": "2025-12-01T16:00:03.998880", "MEAN_MOTION": 15.83377327, "ECCENTRICITY": 0.0001571, "INCLINATION": 42.9981, "RA_OF_ASC_NODE": 258.8952, "ARG_OF_PERICENTER": 252.3015, "MEAN_ANOMALY": 320.2324, "EPHEMERIS_TYPE": 0, "CLASSIFICATION_TYPE": "U", "NORAD_CAT_ID": 66596, "ELEMENT_SET_NO": 999, "REV_AT_EPOCH": 273, "BSTAR": -0.00788, "MEAN_MOTION_DOT": -0.01554787, "MEAN_MOTION_DDOT": 0}, "tle": {"line1": "1 66596U 25270J   25335.66671295 -.01554787  00000+0 -78800-2 0  9991", "line2": "2 66596  42.9981 258.8952 0001571 252.3015 320.2324 15.83377327  2732"}}, "geometry": {"type": "Point", "coordinates": [-98.54504397961503, 6.819593321458251]}}, {"type": "Feature", "properties": {"norad_id": 66597, "name": "STARLINK-35820", "group": "last-30-days", "lat": 8.151484927695336, "lon": -97.08107045411403, "alt_km": 327.4391656871039, "timestamp": "2025-12-02T10:50:46.053717+00:00", "meta": {"OBJECT_NAME": "STARLINK-35820", "OBJECT_ID": "2025-270K", "EPOCH": "2025-12-01T16:00:03.998880", "MEAN_MOTION": 15.83398272, "ECCENTRICITY": 0.0001639, "INCLINATION": 42.9985, "RA_OF_ASC_NODE": 258.8905, "ARG_OF_PERICENTER": 256.1171, "MEAN_ANOMALY": 318.3362, "EPHEMERIS_TYPE": 0, "CLASSIFICATION_TYPE": "U", "NORAD_CAT_ID": 66597, "ELEMENT_SET_NO": 999, "REV_AT_EPOCH": 273, "BSTAR": -0.007888, "MEAN_MOTION_DOT": -0.01557595, "MEAN_MOTION_DDOT": 0}, "tle": {"line1": "1 66597U 25270K   25335.66671295 -.01557595  00000+0 -78880-2 0  9990", "line2": "2 66597  42.9985 258.8905 0001639 256.1171 318.3362 15.83398272  2737"}}, "geometry": {"type": "Point", "coordinates": [-97.08107045411403, 8.151484927695336]}}, {"type": "Feature", "properties": {"norad_id": 66598, "name": "STARLINK-35981", "group": "last-30-days", "lat": 9.588378473992542, "lon": -95.48396147912614, "alt_km": 327.386472400618, "timestamp": "2025-12-02T10:50:46.053727+00:00", "meta": {"OBJECT_NAME": "STARLINK-35981", "OBJECT_ID": "2025-270L", "EPOCH": "2025-12-01T16:00:03.998880", "MEAN_MOTION": 15.83410258, "ECCENTRICITY": 0.0001632, "INCLINATION": 42.9982, "RA_OF_ASC_NODE": 258.8851, "ARG_OF_PERICENTER": 253.0536, "MEAN_ANOMALY": 323.5301, "EPHEMERIS_TYPE": 0, "CLASSIFICATION_TYPE": "U", "NORAD_CAT_ID": 66598, "ELEMENT_SET_NO": 999, "REV_AT_EPOCH": 246, "BSTAR": -0.0079403, "MEAN_MOTION_DOT": -0.01567427, "MEAN_MOTION_DDOT": 0}, "tle": {"line1": "1 66598U 25270L   25335.66671295 -.01567427  00000+0 -79403-2 0  9998", "line2": "2 66598  42.9982 258.8851 0001632 253.0536 323.5301 15.83410258  2469"}}, "geometry": {"type": "Point", "coordinates": [-95.48396147912614, 9.588378473992542]}}, {"type": "Feature", "properties": {"norad_id": 66599, "name": "STARLINK-35930", "group": "last-30-days", "lat": 10.864756164182161, "lon": -94.04701745814303, "alt_km": 326.90254627489503, "timestamp": "2025-12-02T10:50:46.053737+00:00", "meta": {"OBJECT_NAME": "STARLINK-35930", "OBJECT_ID": "2025-270M", "EPOCH": "2025-12-01T16:00:03.998880", "MEAN_MOTION": 15.83437481, "ECCENTRICITY": 0.0001603, "INCLINATION": 42.9985, "RA_OF_ASC_NODE": 258.8805, "ARG_OF_PERICENTER": 261.8481, "MEAN_ANOMALY": 316.5723, "EPHEMERIS_TYPE": 0, "CLASSIFICATION_TYPE": "U", "NORAD_CAT_ID": 66599, "ELEMENT_SET_NO": 999, "REV_AT_EPOCH": 262, "BSTAR": -0.0079468, "MEAN_MOTION_DOT": -0.01570317, "MEAN_MOTION_DDOT": 0}, "tle": {"line1": "1 66599U 25270M   25335.66671295 -.01570317  00000+0 -79468-2 0  9992", "line2": "2 66599  42.9985 258.8805 0001603 261.8481 316.5723 15.83437481  2621"}}, "geometry": {"type": "Point", "coordinates": [-94.04701745814303, 10.864756164182161]}}, {"type": "Feature", "properties": {"norad_id": 66600, "name": "STARLINK-35980", "group": "last-30-days", "lat": 12.255683112365048, "lon": -92.45796053605861, "alt_km": 326.83948822868115, "timestamp": "2025-12-02T10:50:46.053746+00:00", "meta": {"OBJECT_NAME": "STARLINK-35980", "OBJECT_ID": "2025-270N", "EPOCH": "2025-12-01T16:00:03.998880", "MEAN_MOTION": 15.83448962, "ECCENTRICITY": 0.000162, "INCLINATION": 42.9984, "RA_OF_ASC_NODE": 258.8753, "ARG_OF_PERICENTER": 258.6864, "MEAN_ANOMALY": 321.8063, "EPHEMERIS_TYPE": 0, "CLASSIFICATION_TYPE": "U", "NORAD_CAT_ID": 66600, "ELEMENT_SET_NO": 999, "REV_AT_EPOCH": 252, "BSTAR": -0.0079723, "MEAN_MOTION_DOT": -0.01575492, "MEAN_MOTION_DDOT": 0}, "tle": {"line1": "1 66600U 25270N   25335.66671295 -.01575492  00000+0 -79723-2 0  9998", "line2": "2 66600  42.9984 258.8753 0001620 258.6864 321.8063 15.83448962  2524"}}, "geometry": {"type": "Point", "coordinates": [-92.45796053605861, 12.255683112365048]}}]}